STARLINK-4642           
1 53720U 22107W   25048.67998413  .00001991  00000+0  14320-3 0  9997
2 53720  53.2189 182.2537 0001609  90.8445 269.2732 15.08834572136296
STARLINK-4707           
1 53721U 22107X   25048.68734754  .00001067  00000+0  85090-4 0  9992
2 53721  53.2171 182.2995 0001277  85.1473 274.9665 15.08840817136292
STARLINK-4700           
1 53722U 22107Y   25048.62847716  .00001092  00000+0  86657-4 0  9998
2 53722  53.2160 182.6396 0001300  89.8630 270.2511 15.08841862136271
STARLINK-4705           
1 53723U 22107Z   25048.66892741  .00000477  00000+0  48061-4 0  9994
2 53723  53.2179 182.1909 0001397  95.5122 264.6029 15.08837548136438
STARLINK-4663           
1 53724U 22107AA  25048.74990204  .00000908  00000+0  75118-4 0  9999
2 53724  53.2163 181.9795 0001315  91.8227 268.2915 15.08844914136302
STARLINK-4697           
1 53726U 22107AC  25048.69103809  .00000382  00000+0  42070-4 0  9999
2 53726  53.2171 182.3232 0001426  89.1256 270.9899 15.08838443136298
STARLINK-4701           
1 53727U 22107AD  25048.63584446  .00000612  00000+0  56539-4 0  9995
2 53727  53.2162 182.6884 0001322  86.9840 273.1303 15.08844493136426
STARLINK-4640           
1 53728U 22107AE  25048.63216687  .00002444  00000+0  17158-3 0  9993
2 53728  53.2162 182.6651 0001198  93.1635 266.9494 15.08836559136427
STARLINK-4651           
1 53729U 22107AF  25048.77938399  .00009412  00000+0  60827-3 0  9993
2 53729  53.2162 182.1605 0000924  77.8828 282.2268 15.08864639136476
STARLINK-4641           
1 53730U 22107AG  25048.77201629  .00007019  00000+0  45903-3 0  9993
2 53730  53.2173 182.1149 0001731 104.8623 255.2561 15.08812054136441
STARLINK-4636           
1 53731U 22107AH  25048.78306883  .00004540  00000+0  30307-3 0  9991
2 53731  53.2156 182.1826 0001441  85.0364 275.0793 15.08853942136476
STARLINK-4661           
1 53732U 22107AJ  25048.64417602  .00000720  00000+0  63332-4 0  9990
2 53732  53.2170 182.7399 0001362  84.7373 275.3774 15.08838145136427
STARLINK-4574           
1 53733U 22107AK  25048.65795314  .00000375  00000+0  41652-4 0  9998
2 53733  53.2169 182.8224 0001324  85.0685 275.0458 15.08848782136459
STARLINK-4616           
1 53734U 22107AL  25048.77570108 -.00000907  00000+0 -38898-4 0  9995
2 53734  53.2188 182.1389 0001523 101.1438 258.9725 15.08835740136472
STARLINK-4618           
1 53735U 22107AM  25048.68644750  .00001933  00000+0  13954-3 0  9994
2 53735  53.2166 192.2808 0001487  96.5045 263.6116 15.08835348136322
STARLINK-4652           
1 53736U 22107AN  25048.78674522  .00001489  00000+0  11157-3 0  9995
2 53736  53.2175 182.2050 0000973 122.5966 237.5120 15.08846694136479
STARLINK-4646           
1 53737U 22107AP  25048.62387031 -.00000834  00000+0 -34318-4 0  9995
2 53737  53.2176 192.6008 0001885  95.1034 265.0174 15.08821933136466
STARLINK-4662           
1 53738U 22107AQ  25048.68273725  .00000411  00000+0  43916-4 0  9999
2 53738  53.2164 192.2564 0001209  91.0187 269.0944 15.08841206136320
STARLINK-4607           
1 53740U 22107AS  25048.69385828 -.00006338  00000+0 -38114-3 0  9990
2 53740  53.2172 192.3279 0001053  89.3600 270.7513 15.08780985136476
STARLINK-4614           
1 53741U 22107AT  25048.67220215 -.00001354  00000+0 -66997-4 0  9991
2 53741  53.2186 177.3058 0001642  81.5442 278.5737 15.08845321136685
STARLINK-4637           
1 53742U 22107AU  25048.69748594  .00000445  00000+0  46056-4 0  9991
2 53742  53.2183 192.3499 0001284  95.7832 264.3307 15.08836922136471
STARLINK-4645           
1 53743U 22107AV  25048.64597823  .00000949  00000+0  77727-4 0  9992
2 53743  53.2169 192.7393 0001328  93.0835 267.0309 15.08842178136467
STARLINK-4670           
1 53744U 22107AW  25048.66800566  .00000142  00000+0  27048-4 0  9992
2 53744  53.2168 192.1714 0001461 106.0501 254.0652 15.08835470136476
STARLINK-4656           
1 53745U 22107AX  25048.71590895 -.00000806  00000+0 -32552-4 0  9995
2 53745  53.2165 192.4642 0001255  84.0719 276.0417 15.08848531136479
STARLINK-4589           
1 53746U 22107AY  25048.64229599  .00000269  00000+0  34963-4 0  9997
2 53746  53.2166 192.7154 0001301  96.6364 263.4776 15.08838588136467
STARLINK-4680           
1 53749U 22107BB  25048.91668981  .00118463  00000+0  17145-2 0  9999
2 53749  53.2117 152.0486 0004069 335.4100 160.8737 15.55035460  5977
STARLINK-4612           
1 53750U 22107BC  25048.78951587 -.00000607  00000+0 -20041-4 0  9996
2 53750  53.2161 192.2121 0001138  76.1966 283.9153 15.08833604136498
STARLINK-4718           
1 53773U 22111A   25048.68092858 -.00000174  00000+0  71351-5 0  9991
2 53773  53.2177 212.4165 0001389  88.7988 271.3163 15.08829737135723
STARLINK-4719           
1 53774U 22111B   25048.67723435  .00001903  00000+0  13764-3 0  9995
2 53774  53.2164 212.3931 0001266  94.7118 265.4019 15.08831405135589
STARLINK-4722           
1 53775U 22111C   25048.70763982  .00000411  00000+0  43924-4 0  9996
2 53775  53.2174 202.6061 0001391  92.0214 268.0938 15.08838762135575
STARLINK-4708           
1 53776U 22111D   25048.70260778 -.00000089  00000+0  12467-4 0  9992
2 53776  53.2175 207.5640 0001354  83.6593 276.4553 15.08838706135786
STARLINK-4664           
1 53777U 22111E   25048.70026567  .00000970  00000+0  78987-4 0  9996
2 53777  53.2169 202.5591 0001259  87.8333 272.2803 15.08843721135574
STARLINK-4709           
1 53778U 22111F   25048.66112011  .00000723  00000+0  63524-4 0  9999
2 53778  53.2156 207.3079 0001143  90.9026 269.2097 15.08836576135505
STARLINK-4706           
1 53779U 22111G   25048.69658358  .00000675  00000+0  60476-4 0  9991
2 53779  53.2178 202.5363 0001388  91.8364 268.2787 15.08840232135575
STARLINK-4678           
1 53780U 22111H   25048.70394633 -.00001394  00000+0 -69527-4 0  9995
2 53780  53.2176 202.5825 0001091  97.8045 262.3071 15.08835377135576
STARLINK-4462           
1 53781U 22111J   25048.68552549  .00000371  00000+0  41401-4 0  9998
2 53781  53.2164 202.4682 0001326  90.1075 270.0069 15.08842519135573
STARLINK-4679           
1 53782U 22111K   25048.69290219  .00001716  00000+0  12589-3 0  9991
2 53782  53.2172 202.5127 0001458  93.6287 266.4872 15.08835826135571
STARLINK-4536           
1 53783U 22111L   25048.74442041 -.00001053  00000+0 -48110-4 0  9996
2 53783  53.2170 202.1237 0001572  60.9556 299.1593 15.08831008135583
STARLINK-4687           
1 53784U 22111M   25048.68921282  .00002853  00000+0  19725-3 0  9995
2 53784  53.2158 202.4912 0001222  85.4114 274.7018 15.08846392135579
STARLINK-4631           
1 53786U 22111P   25048.71681617  .00000561  00000+0  53300-4 0  9998
2 53786  53.2167 192.0981 0001222  86.1910 273.9221 15.08842186135724
STARLINK-4743           
1 53787U 22111Q   25048.80327743 -.00000554  00000+0 -16702-4 0  9995
2 53787  53.2166 201.7827 0001393  85.3083 274.8068 15.08829302135591
STARLINK-4666           
1 53789U 22111S   25048.65973815 -.00000629  00000+0 -21458-4 0  9994
2 53789  53.2161 202.3103 0001068  87.0033 273.1081 15.08832642135560
STARLINK-4734           
1 53790U 22111T   25048.80694800 -.00003712  00000+0 -21528-3 0  9990
2 53790  53.2155 201.8053 0001333  89.5986 270.5159 15.08832183135592
STARLINK-4739           
1 53792U 22111V   25048.71965751 -.00000125  00000+0  10252-4 0  9995
2 53792  53.2176 202.6709 0001421  98.2828 261.8325 15.08832095135561
STARLINK-4728           
1 53793U 22111W   25048.66710738  .00001655  00000+0  12203-3 0  9998
2 53793  53.2173 202.3530 0001296  88.2307 271.8834 15.08839714135560
STARLINK-4730           
1 53794U 22111X   25048.67174736  .00001166  00000+0  91360-4 0  9991
2 53794  53.2163 202.3815 0001174  88.9755 271.1372 15.08839736135569
STARLINK-4742           
1 53795U 22111Y   25048.72231014  .00000199  00000+0  30607-4 0  9993
2 53795  53.2167 201.9928 0001431 105.7798 254.3352 15.08831536135577
STARLINK-4721           
1 53796U 22111Z   25048.60698840  .00074297  00000+0  20062-2 0  9997
2 53796  53.1884 162.0660 0003091 317.6018  42.4747 15.37115882136156
STARLINK-4723           
1 53797U 22111AA  25048.71123302  .00000811  00000+0  69030-4 0  9997
2 53797  53.2159 201.9203 0001270  91.3291 268.7847 15.08840721135568
STARLINK-4712           
1 53798U 22111AB  25048.71492075  .00000198  00000+0  30546-4 0  9992
2 53798  53.2168 201.9432 0001266  92.4490 267.6647 15.08837535135566
STARLINK-4710           
1 53799U 22111AC  25048.69110239  .00000551  00000+0  52689-4 0  9994
2 53799  53.2189 192.5187 0001462  96.7419 263.3740 15.08831852135695
STARLINK-4720           
1 53800U 22111AD  25048.67908232  .00000791  00000+0  67807-4 0  9997
2 53800  53.2178 192.4436 0001287  88.9962 271.1178 15.08840064135690
STARLINK-4715           
1 53801U 22111AE  25048.66066048  .00000237  00000+0  32952-4 0  9995
2 53801  53.2159 192.3313 0001388  90.4135 269.7016 15.08836910135694
STARLINK-4726           
1 53802U 22111AF  25048.67171914 -.00001801  00000+0 -95095-4 0  9993
2 53802  53.2190 192.3977 0001565 108.5749 251.5413 15.08843928135692
STARLINK-4727           
1 53803U 22111AG  25048.61975188  .00001329  00000+0  10155-3 0  9999
2 53803  53.2169 177.8133 0001424  85.9885 274.1270 15.08841683135894
STARLINK-4729           
1 53804U 22111AH  25048.66392222  .00001683  00000+0  12381-3 0  9993
2 53804  53.2157 187.3505 0001323  91.8567 268.2577 15.08838532135761
STARLINK-4763           
1 53805U 22111AJ  25048.62807708  .00001242  00000+0  96083-4 0  9993
2 53805  53.2161 177.8586 0001294  90.5501 269.5640 15.08841216135893
STARLINK-4768           
1 53806U 22111AK  25048.73381773  .00000079  00000+0  23073-4 0  9991
2 53806  53.2176 177.0963 0001391  84.3041 275.8109 15.08836944135914
STARLINK-4749           
1 53818U 22114A   25048.91668981  .00490092  00000+0  23971-2 0  9999
2 53818  53.1983 153.2478 0008351 323.7521 204.9672 15.80399652  5975
